BEIDOU-3 M28 (C50)      
1 58654U 23207A   26176.89061017 -.00000090  00000+0  00000+0 0  9994
2 58654  55.7603  62.0093 0003002 352.5208   7.5157  1.86229879 17001
BEIDOU-3 M26 (C48)      
1 58655U 23207B   26177.22506740 -.00000088  00000+0  00000+0 0  9997
2 58655  55.7629  61.9846 0002695 322.2397  37.7837  1.86229867 16998
GSAT0225 (GALILEO 29)   
1 59598U 24079A   26175.75913958 -.00000038  00000+0  00000+0 0  9996
2 59598  55.1240 100.8683 0001742 297.9493 254.8080  1.70474128 13441
GSAT0227 (GALILEO 30)   
1 59600U 24079C   26174.45530327 -.00000033  00000+0  00000+0 0  9996
2 59600  55.1185 100.9033 0002419  58.0764 301.9236  1.70473918 13478
GSAT0232 (GALILEO 32)   
1 61182U 24167A   26177.16213501  .00000062  00000+0  00000+0 0  9996
2 61182  55.1828 221.0673 0006275 229.7738 207.0709  1.70474496 11030
GSAT0226 (GALILEO 31)   
1 61183U 24167B   26177.47940175  .00000064  00000+0  00000+0 0  9997
2 61183  55.1816 221.0657 0002937 230.4036 132.4929  1.70474505 11015
BEIDOU-3 M25 (C47)      
1 61186U 24168B   26177.68837491 -.00000100  00000+0  00000+0 0  9992
2 61186  54.4642 301.9122 0003152 298.5608 129.4741  1.86230369 11969
BEIDOU-3 M27 (C49)      
1 61187U 24168C   26177.65781938 -.00000100  00000+0  00000+0 0  9994
2 61187  54.4594 301.8961 0001371  48.4457 134.1335  1.86230428  9438
GPS BIII-7  (PRN 01)    
1 62339U 24242A   26177.06783932 -.00000106  00000+0  00000+0 0  9994
2 62339  54.8454 333.8210 0017666   4.5395 177.0108  2.00572026 11434
QZS-6 (QZSS/PRN 200)    
1 62876U 25023A   26176.60391804 -.00000223  00000+0  00000+0 0  9990
2 62876   0.0573 280.3752 0001985 187.0073 114.2719  1.00273214  5035
GPS BIII-8  (PRN 21)    
1 64202U 25116A   26176.81205127 -.00000089  00000+0  00000+0 0  9993
2 64202  55.2403  30.7831 0008279 342.5010 197.3025  2.00575516  8048
COSMOS 2596 (708K)      
1 65590U 25206B   26175.96646456 -.00000086  00000+0  00000+0 0  9990
2 65590  64.6296 314.7142 0011009 310.6805  49.5796  2.13100978  6081
GSAT0233 (GALILEO 33)   
1 67160U 25302A   26175.09516034 -.00000035  00000+0  00000+0 0  9998
2 67160  54.3398 101.9339 0000823 209.8671 226.2605  1.70474189  3249
GSAT0234 (GALILEO 34)   
1 67162U 25302C   26177.31099617 -.00000038  00000+0  00000+0 0  9993
2 67162  54.3424 101.8702 0002967 307.0359 229.1139  1.70474228  3337
GPS BIII-9  (PRN 20)    
1 67588U 26017A   26177.17140900 -.00000068  00000+0  00000+0 0  9998
2 67588  55.0939  88.3946 0021485 258.6377 101.1236  2.00570994431797
GPS BIII-10 (PRN 13)    
1 68791U 26087A   26173.65141046  .00000058  00000+0  00000+0 0  9991
2 68791  54.9627 207.5713 0020681 106.6591  76.9843  2.00570839   940
